STARLINK-36564          
1 67549U 26014T   26035.25004630 -.01300972  00000+0 -73206-2 0  9993
2 67549  97.2787 278.4829 0001515  73.8684  15.4434 15.81933304  3259
STARLINK-36563          
1 67550U 26014U   26035.25004630 -.01522077  00000+0 -84415-2 0  9991
2 67550  97.2776 278.4842 0001683  71.0489  24.7109 15.82224927  3317
STARLINK-36566          
1 67551U 26014V   26035.25004630 -.01557745  00000+0 -85830-2 0  9994
2 67551  97.2773 278.4866 0001502  84.6655  16.9627 15.82433709  3314
STARLINK-36567          
1 67552U 26014W   26035.25004630 -.01569311  00000+0 -85779-2 0  9999
2 67552  97.2772 278.4892 0001610  79.0277  28.5245 15.82624334  3312
STARLINK-36569          
1 67553U 26014X   26035.25004630 -.01590164  00000+0 -85991-2 0  9996
2 67553  97.2768 278.4915 0001634  85.2736  30.0503 15.82890843  3314
STARLINK-36395          
1 67554U 26014Y   26035.25004630 -.01581040  00000+0 -82780-2 0  9993
2 67554  97.2769 278.5008 0001627  87.4569  48.4374 15.83555076  3316
STARLINK-36559          
1 67555U 26014Z   26035.25004630 -.01584813  00000+0 -83802-2 0  9991
2 67555  97.2771 278.4981 0001657  84.1593  45.4742 15.83353663  3317
MR-1                    
1 67556U 26015A   26035.20382744  .00000083  00000+0  10752-3 0  9997
2 67556  88.9987 282.0648 0005052  98.6446 261.5278 13.52685773  1738
MR-2                    
1 67557U 26015B   26035.20405746  .00000046  00000+0  50482-4 0  9990
2 67557  88.9987 282.0650 0005130  97.6873 262.4862 13.52660693  1735
ELECTRON R/B            
1 67558U 26015C   26035.23314226  .01305820 -66907-6  12000-2 0  9993
2 67558  89.0030 281.7114 0546565 223.6347 132.0442 15.05452521  1912
ELECTRON KICK STAGE R/B 
1 67559U 26015D   26035.24736720  .00061203  13219-6  10408-2 0  9992
2 67559  89.0516 281.8472 0534163 290.8322  63.6480 14.66824622  1888
STARLINK-36426          
1 67560U 26014AA  26035.25004630 -.01589390  00000+0 -85186-2 0  9999
2 67560  97.2768 278.4941 0001793  84.9390  36.2308 15.83075883  2151
