CCSDS_OMM_VERS = 2.0
CREATION_DATE  = 
ORIGINATOR     = 

OBJECT_NAME    = STARLINK-36564
OBJECT_ID      = 2026-014T
CENTER_NAME    = EARTH
REF_FRAME      = TEME
TIME_SYSTEM    = UTC
MEAN_ELEMENT_THEORY = SGP/SGP4

EPOCH          = 2026-02-04T06:00:04.000320
MEAN_MOTION    = 15.81933304
ECCENTRICITY   = .00015157
INCLINATION    = 97.2787
RA_OF_ASC_NODE = 278.4829
ARG_OF_PERICENTER = 73.8684
MEAN_ANOMALY   = 15.4434

EPHEMERIS_TYPE = 0
CLASSIFICATION_TYPE = U
NORAD_CAT_ID   = 67549
ELEMENT_SET_NO = 999
REV_AT_EPOCH   = 325
BSTAR          = -.73206404E-2
MEAN_MOTION_DOT = -.1300972E-1
MEAN_MOTION_DDOT = 0

CCSDS_OMM_VERS = 2.0
CREATION_DATE  = 
ORIGINATOR     = 

OBJECT_NAME    = STARLINK-36563
OBJECT_ID      = 2026-014U
CENTER_NAME    = EARTH
REF_FRAME      = TEME
TIME_SYSTEM    = UTC
MEAN_ELEMENT_THEORY = SGP/SGP4

EPOCH          = 2026-02-04T06:00:04.000320
MEAN_MOTION    = 15.82224927
ECCENTRICITY   = .00016835
INCLINATION    = 97.2776
RA_OF_ASC_NODE = 278.4842
ARG_OF_PERICENTER = 71.0489
MEAN_ANOMALY   = 24.7109

EPHEMERIS_TYPE = 0
CLASSIFICATION_TYPE = U
NORAD_CAT_ID   = 67550
ELEMENT_SET_NO = 999
REV_AT_EPOCH   = 331
BSTAR          = -.84414875E-2
MEAN_MOTION_DOT = -.1522077E-1
MEAN_MOTION_DDOT = 0

CCSDS_OMM_VERS = 2.0
CREATION_DATE  = 
ORIGINATOR     = 

OBJECT_NAME    = STARLINK-36566
OBJECT_ID      = 2026-014V
CENTER_NAME    = EARTH
REF_FRAME      = TEME
TIME_SYSTEM    = UTC
MEAN_ELEMENT_THEORY = SGP/SGP4

EPOCH          = 2026-02-04T06:00:04.000320
MEAN_MOTION    = 15.82433709
ECCENTRICITY   = .00015025
INCLINATION    = 97.2773
RA_OF_ASC_NODE = 278.4866
ARG_OF_PERICENTER = 84.6655
MEAN_ANOMALY   = 16.9627

EPHEMERIS_TYPE = 0
CLASSIFICATION_TYPE = U
NORAD_CAT_ID   = 67551
ELEMENT_SET_NO = 999
REV_AT_EPOCH   = 331
BSTAR          = -.85830482E-2
MEAN_MOTION_DOT = -.1557745E-1
MEAN_MOTION_DDOT = 0

CCSDS_OMM_VERS = 2.0
CREATION_DATE  = 
ORIGINATOR     = 

OBJECT_NAME    = STARLINK-36567
OBJECT_ID      = 2026-014W
CENTER_NAME    = EARTH
REF_FRAME      = TEME
TIME_SYSTEM    = UTC
MEAN_ELEMENT_THEORY = SGP/SGP4

EPOCH          = 2026-02-04T06:00:04.000320
MEAN_MOTION    = 15.82624334
ECCENTRICITY   = .00016102
INCLINATION    = 97.2772
RA_OF_ASC_NODE = 278.4892
ARG_OF_PERICENTER = 79.0277
MEAN_ANOMALY   = 28.5245

EPHEMERIS_TYPE = 0
CLASSIFICATION_TYPE = U
NORAD_CAT_ID   = 67552
ELEMENT_SET_NO = 999
REV_AT_EPOCH   = 331
BSTAR          = -.85778507E-2
MEAN_MOTION_DOT = -.1569311E-1
MEAN_MOTION_DDOT = 0

CCSDS_OMM_VERS = 2.0
CREATION_DATE  = 
ORIGINATOR     = 

OBJECT_NAME    = STARLINK-36569
OBJECT_ID      = 2026-014X
CENTER_NAME    = EARTH
REF_FRAME      = TEME
TIME_SYSTEM    = UTC
MEAN_ELEMENT_THEORY = SGP/SGP4

EPOCH          = 2026-02-04T06:00:04.000320
MEAN_MOTION    = 15.82890843
ECCENTRICITY   = .00016344
INCLINATION    = 97.2768
RA_OF_ASC_NODE = 278.4915
ARG_OF_PERICENTER = 85.2736
MEAN_ANOMALY   = 30.0503

EPHEMERIS_TYPE = 0
CLASSIFICATION_TYPE = U
NORAD_CAT_ID   = 67553
ELEMENT_SET_NO = 999
REV_AT_EPOCH   = 331
BSTAR          = -.8599127E-2
MEAN_MOTION_DOT = -.1590164E-1
MEAN_MOTION_DDOT = 0

CCSDS_OMM_VERS = 2.0
CREATION_DATE  = 
ORIGINATOR     = 

OBJECT_NAME    = STARLINK-36395
OBJECT_ID      = 2026-014Y
CENTER_NAME    = EARTH
REF_FRAME      = TEME
TIME_SYSTEM    = UTC
MEAN_ELEMENT_THEORY = SGP/SGP4

EPOCH          = 2026-02-04T06:00:04.000320
MEAN_MOTION    = 15.83555076
ECCENTRICITY   = .00016271
INCLINATION    = 97.2769
RA_OF_ASC_NODE = 278.5008
ARG_OF_PERICENTER = 87.4569
MEAN_ANOMALY   = 48.4374

EPHEMERIS_TYPE = 0
CLASSIFICATION_TYPE = U
NORAD_CAT_ID   = 67554
ELEMENT_SET_NO = 999
REV_AT_EPOCH   = 331
BSTAR          = -.827803E-2
MEAN_MOTION_DOT = -.158104E-1
MEAN_MOTION_DDOT = 0

CCSDS_OMM_VERS = 2.0
CREATION_DATE  = 
ORIGINATOR     = 

OBJECT_NAME    = STARLINK-36559
OBJECT_ID      = 2026-014Z
CENTER_NAME    = EARTH
REF_FRAME      = TEME
TIME_SYSTEM    = UTC
MEAN_ELEMENT_THEORY = SGP/SGP4

EPOCH          = 2026-02-04T06:00:04.000320
MEAN_MOTION    = 15.83353663
ECCENTRICITY   = .00016578
INCLINATION    = 97.2771
RA_OF_ASC_NODE = 278.4981
ARG_OF_PERICENTER = 84.1593
MEAN_ANOMALY   = 45.4742

EPHEMERIS_TYPE = 0
CLASSIFICATION_TYPE = U
NORAD_CAT_ID   = 67555
ELEMENT_SET_NO = 999
REV_AT_EPOCH   = 331
BSTAR          = -.83802453E-2
MEAN_MOTION_DOT = -.1584813E-1
MEAN_MOTION_DDOT = 0

CCSDS_OMM_VERS = 2.0
CREATION_DATE  = 
ORIGINATOR     = 

OBJECT_NAME    = MR-1
OBJECT_ID      = 2026-015A
CENTER_NAME    = EARTH
REF_FRAME      = TEME
TIME_SYSTEM    = UTC
MEAN_ELEMENT_THEORY = SGP/SGP4

EPOCH          = 2026-02-04T04:53:30.690816
MEAN_MOTION    = 13.52685773
ECCENTRICITY   = .00050523
INCLINATION    = 88.9987
RA_OF_ASC_NODE = 282.0648
ARG_OF_PERICENTER = 98.6446
MEAN_ANOMALY   = 261.5278

EPHEMERIS_TYPE = 0
CLASSIFICATION_TYPE = U
NORAD_CAT_ID   = 67556
ELEMENT_SET_NO = 999
REV_AT_EPOCH   = 173
BSTAR          = .10751761E-3
MEAN_MOTION_DOT = .83E-6
MEAN_MOTION_DDOT = 0

CCSDS_OMM_VERS = 2.0
CREATION_DATE  = 
ORIGINATOR     = 

OBJECT_NAME    = MR-2
OBJECT_ID      = 2026-015B
CENTER_NAME    = EARTH
REF_FRAME      = TEME
TIME_SYSTEM    = UTC
MEAN_ELEMENT_THEORY = SGP/SGP4

EPOCH          = 2026-02-04T04:53:50.564544
MEAN_MOTION    = 13.52660693
ECCENTRICITY   = .00051306
INCLINATION    = 88.9987
RA_OF_ASC_NODE = 282.0650
ARG_OF_PERICENTER = 97.6873
MEAN_ANOMALY   = 262.4862

EPHEMERIS_TYPE = 0
CLASSIFICATION_TYPE = U
NORAD_CAT_ID   = 67557
ELEMENT_SET_NO = 999
REV_AT_EPOCH   = 173
BSTAR          = .50482478E-4
MEAN_MOTION_DOT = .46E-6
MEAN_MOTION_DDOT = 0

CCSDS_OMM_VERS = 2.0
CREATION_DATE  = 
ORIGINATOR     = 

OBJECT_NAME    = ELECTRON R/B
OBJECT_ID      = 2026-015C
CENTER_NAME    = EARTH
REF_FRAME      = TEME
TIME_SYSTEM    = UTC
MEAN_ELEMENT_THEORY = SGP/SGP4

EPOCH          = 2026-02-04T05:35:43.491264
MEAN_MOTION    = 15.05452521
ECCENTRICITY   = .05465655
INCLINATION    = 89.0030
RA_OF_ASC_NODE = 281.7114
ARG_OF_PERICENTER = 223.6347
MEAN_ANOMALY   = 132.0442

EPHEMERIS_TYPE = 0
CLASSIFICATION_TYPE = U
NORAD_CAT_ID   = 67558
ELEMENT_SET_NO = 999
REV_AT_EPOCH   = 191
BSTAR          = .11999725E-2
MEAN_MOTION_DOT = .130582E-1
MEAN_MOTION_DDOT = -.669067E-6

CCSDS_OMM_VERS = 2.0
CREATION_DATE  = 
ORIGINATOR     = 

OBJECT_NAME    = ELECTRON KICK STAGE R/B
OBJECT_ID      = 2026-015D
CENTER_NAME    = EARTH
REF_FRAME      = TEME
TIME_SYSTEM    = UTC
MEAN_ELEMENT_THEORY = SGP/SGP4

EPOCH          = 2026-02-04T05:56:12.526080
MEAN_MOTION    = 14.66824622
ECCENTRICITY   = .05341635
INCLINATION    = 89.0516
RA_OF_ASC_NODE = 281.8472
ARG_OF_PERICENTER = 290.8322
MEAN_ANOMALY   = 63.6480

EPHEMERIS_TYPE = 0
CLASSIFICATION_TYPE = U
NORAD_CAT_ID   = 67559
ELEMENT_SET_NO = 999
REV_AT_EPOCH   = 188
BSTAR          = .10408407E-2
MEAN_MOTION_DOT = .61203E-3
MEAN_MOTION_DDOT = .132193E-6

CCSDS_OMM_VERS = 2.0
CREATION_DATE  = 
ORIGINATOR     = 

OBJECT_NAME    = STARLINK-36426
OBJECT_ID      = 2026-014AA
CENTER_NAME    = EARTH
REF_FRAME      = TEME
TIME_SYSTEM    = UTC
MEAN_ELEMENT_THEORY = SGP/SGP4

EPOCH          = 2026-02-04T06:00:04.000320
MEAN_MOTION    = 15.83075883
ECCENTRICITY   = .00017939
INCLINATION    = 97.2768
RA_OF_ASC_NODE = 278.4941
ARG_OF_PERICENTER = 84.9390
MEAN_ANOMALY   = 36.2308

EPHEMERIS_TYPE = 0
CLASSIFICATION_TYPE = U
NORAD_CAT_ID   = 67560
ELEMENT_SET_NO = 999
REV_AT_EPOCH   = 215
BSTAR          = -.85186298E-2
MEAN_MOTION_DOT = -.158939E-1
MEAN_MOTION_DDOT = 0

